[
  {
    "name": "STARLINK-5913",
    "noradId": "55937",
    "line1": "1 55937U 23037Z   26180.54305343  .00000161  00000+0  21266-4 0  9996",
    "line2": "2 55937  69.9997   2.4802 0003013 267.2794  92.8020 14.98332640180730"
  },
  {
    "name": "STARLINK-5909",
    "noradId": "55938",
    "line1": "1 55938U 23037AA  26180.53889390 -.00001032  00000+0 -78704-4 0  9994",
    "line2": "2 55938  69.9995   2.4657 0002959 272.7629  87.3191 14.98323220180735"
  },
  {
    "name": "STARLINK-5918",
    "noradId": "55939",
    "line1": "1 55939U 23037AB  26179.92969239 -.00000078  00000+0  12311-5 0  9998",
    "line2": "2 55939  69.9996   3.9513 0002876 269.5725  90.5104 14.98331511180645"
  },
  {
    "name": "STARLINK-5864",
    "noradId": "55940",
    "line1": "1 55940U 23037AC  26180.53470712 -.00002843  00000+0 -23045-3 0  9999",
    "line2": "2 55940  69.9998   2.4514 0002763 268.6423  91.4419 14.98346522180731"
  },
  {
    "name": "STARLINK-5914",
    "noradId": "55941",
    "line1": "1 55941U 23037AD  26180.55975284  .00000460  00000+0  46371-4 0  9995",
    "line2": "2 55941  70.0003   2.5392 0002859 266.9743  93.1089 14.98330794180735"
  },
  {
    "name": "STARLINK-5917",
    "noradId": "55942",
    "line1": "1 55942U 23037AE  26180.50966545  .00000502  00000+0  49864-4 0  9998",
    "line2": "2 55942  70.0000   2.3623 0003192 267.2153  92.8640 14.98327962180730"
  },
  {
    "name": "STARLINK-5932",
    "noradId": "55943",
    "line1": "1 55943U 23037AF  26180.51800970  .00000170  00000+0  22027-4 0  9992",
    "line2": "2 55943  70.0000   2.3829 0003057 268.8728  91.2081 14.98329739180730"
  },
  {
    "name": "STARLINK-5926",
    "noradId": "55944",
    "line1": "1 55944U 23037AG  26180.51383666  .00000120  00000+0  17878-4 0  9994",
    "line2": "2 55944  69.9999   2.3778 0002900 266.2927  93.7900 14.98330393180732"
  },
  {
    "name": "STARLINK-5925",
    "noradId": "55945",
    "line1": "1 55945U 23037AH  26180.52234985  .00000355  00000+0  37520-4 0  9991",
    "line2": "2 55945  69.9999   2.4078 0002971 268.9930  91.0889 14.98330532180730"
  },
  {
    "name": "STARLINK-5857",
    "noradId": "55946",
    "line1": "1 55946U 23037AJ  26180.52218615  .00000458  00000+0  46184-4 0  9994",
    "line2": "2 55946  69.9999   2.4066 0003009 268.0760  92.0054 14.98330160180724"
  },
  {
    "name": "STARLINK-5900",
    "noradId": "55948",
    "line1": "1 55948U 23037AL  26180.53448374  .00000750  00000+0  70634-4 0  9996",
    "line2": "2 55948  70.0005 342.5692 0003001 268.0678  92.0138 14.98330667181221"
  },
  {
    "name": "STARLINK-5899",
    "noradId": "55949",
    "line1": "1 55949U 23037AM  26180.54283197  .00000096  00000+0  15847-4 0  9996",
    "line2": "2 55949  70.0003 342.5996 0002770 264.9583  95.1260 14.98331267181226"
  },
  {
    "name": "STARLINK-5911",
    "noradId": "55950",
    "line1": "1 55950U 23037AN  26180.53030488 -.00000608  00000+0 -43139-4 0  9996",
    "line2": "2 55950  70.0005 342.5556 0003531 262.7024  97.3734 14.98326088181229"
  },
  {
    "name": "STARLINK-5908",
    "noradId": "55951",
    "line1": "1 55951U 23037AP  26179.97141022 -.00000257  00000+0 -13752-4 0  9998",
    "line2": "2 55951  70.0005   3.6943 0002926 269.1410  90.9414 14.98326453180658"
  },
  {
    "name": "STARLINK-5893",
    "noradId": "55952",
    "line1": "1 55952U 23037AQ  26180.53464821 -.00000006  00000+0  72940-5 0  9994",
    "line2": "2 55952  70.0006 342.5715 0003092 269.1037  90.9768 14.98331089181229"
  },
  {
    "name": "STARLINK-5892",
    "noradId": "55954",
    "line1": "1 55954U 23037AS  26180.50526470  .00000176  00000+0  22542-4 0  9991",
    "line2": "2 55954  69.9998 342.4667 0003090 265.5890  94.4916 14.98328897181225"
  },
  {
    "name": "STARLINK-5878",
    "noradId": "55955",
    "line1": "1 55955U 23037AT  26180.52196073  .00000544  00000+0  53393-4 0  9993",
    "line2": "2 55955  70.0002 342.5255 0002950 266.5229  93.5593 14.98329914181222"
  },
  {
    "name": "STARLINK-5883",
    "noradId": "55956",
    "line1": "1 55956U 23037AU  26180.49691561 -.00000218  00000+0 -10499-4 0  9992",
    "line2": "2 55956  70.0000 342.4380 0002804 267.7497  92.3341 14.98330885181224"
  },
  {
    "name": "STARLINK-5884",
    "noradId": "55957",
    "line1": "1 55957U 23037AV  26180.52613508  .00000313  00000+0  34024-4 0  9996",
    "line2": "2 55957  70.0004 342.5403 0003084 267.6278  92.4528 14.98329738181226"
  },
  {
    "name": "STARLINK-5928",
    "noradId": "55958",
    "line1": "1 55958U 23037AW  26180.51778625  .00000178  00000+0  22672-4 0  9993",
    "line2": "2 55958  70.0001 342.5112 0003105 268.7875  91.2928 14.98329492181228"
  },
  {
    "name": "STARLINK-5929",
    "noradId": "55959",
    "line1": "1 55959U 23037AX  26180.51361245  .00000206  00000+0  25050-4 0  9995",
    "line2": "2 55959  69.9999 342.4960 0003142 264.4150  95.6651 14.98328733181220"
  },
  {
    "name": "STARLINK-5938",
    "noradId": "55960",
    "line1": "1 55960U 23037AY  26180.52629899  .00000316  00000+0  34299-4 0  9997",
    "line2": "2 55960  70.0004 342.5227 0003104 267.9522  92.1282 14.98329662181222"
  },
  {
    "name": "STARLINK-5933",
    "noradId": "55961",
    "line1": "1 55961U 23037AZ  26180.50105714  .00002505  00000+0  21753-3 0  9993",
    "line2": "2 55961  69.9999 342.4516 0002872 251.2199 108.8649 14.98354826181222"
  },
  {
    "name": "STARLINK-5906",
    "noradId": "55962",
    "line1": "1 55962U 23037BA  26180.53864044  .00002189  00000+0  19112-3 0  9999",
    "line2": "2 55962  70.0003 342.5792 0003163 267.8911  92.1886 14.98344324181228"
  },
  {
    "name": "STARLINK-5924",
    "noradId": "55963",
    "line1": "1 55963U 23037BB  26180.50944641  .00000775  00000+0  72717-4 0  9999",
    "line2": "2 55963  69.9998 342.4819 0003065 269.2367  90.8440 14.98319942181229"
  },
  {
    "name": "STARLINK-5895",
    "noradId": "55964",
    "line1": "1 55964U 23037BC  26180.54919860  .00018041  00000+0  10840-2 0  9991",
    "line2": "2 55964  69.9967 333.7597 0002978 184.9865 175.1272 15.10914572181449"
  },
  {
    "name": "STARLINK-5894",
    "noradId": "55965",
    "line1": "1 55965U 23037BD  26180.55949946  .00000734  00000+0  69338-4 0  9999",
    "line2": "2 55965  69.9997 342.2542 0003231 270.9961  89.0828 14.98331856181234"
  },
  {
    "name": "STARLINK-5905",
    "noradId": "55986",
    "line1": "1 55986U 23042A   26179.96039966 -.00004099  00000+0 -13958-3 0  9999",
    "line2": "2 55986  43.0014 151.4715 0001642 284.3695  75.6974 15.27561828180700"
  },
  {
    "name": "STARLINK-5915",
    "noradId": "55987",
    "line1": "1 55987U 23042B   26179.93985029  .00001634  00000+0  68918-4 0  9994",
    "line2": "2 55987  43.0026 151.3339 0001311 270.0773  89.9928 15.27563729179883"
  },
  {
    "name": "STARLINK-5916",
    "noradId": "55988",
    "line1": "1 55988U 23042C   26180.38305782  .00001894  00000+0  78334-4 0  9999",
    "line2": "2 55988  43.0042 152.9161 0001524 275.4654  84.6024 15.27576126179902"
  }
]