OBJECT_NAME,OBJECT_ID,EPOCH,MEAN_MOTION,ECCENTRICITY,INCLINATION,RA_OF_ASC_NODE,ARG_OF_PERICENTER,MEAN_ANOMALY,EPHEMERIS_TYPE,CLASSIFICATION_TYPE,NORAD_CAT_ID,ELEMENT_SET_NO,REV_AT_EPOCH,BSTAR,MEAN_MOTION_DOT,MEAN_MOTION_DDOT
STARLINK-5913,2023-037Z,2026-06-29T13:01:59.816352,14.98332640,.0003013,69.9997,2.4802,267.2794,92.8020,0,U,55937,999,18073,.21266E-4,.161E-5,0
STARLINK-5909,2023-037AA,2026-06-29T12:56:00.432960,14.98323220,.0002959,69.9995,2.4657,272.7629,87.3191,0,U,55938,999,18073,-.78704E-4,-.1032E-4,0
STARLINK-5918,2023-037AB,2026-06-28T22:18:45.422496,14.98331511,.0002876,69.9996,3.9513,269.5725,90.5104,0,U,55939,999,18064,.1231127E-5,-.78E-6,0
STARLINK-5864,2023-037AC,2026-06-29T12:49:58.695168,14.98346522,.0002763,69.9998,2.4514,268.6423,91.4419,0,U,55940,999,18073,-.23045E-3,-.2843E-4,0
STARLINK-5914,2023-037AD,2026-06-29T13:26:02.645376,14.98330794,.0002859,70.0003,2.5392,266.9743,93.1089,0,U,55941,999,18073,.46371E-4,.46E-5,0
STARLINK-5917,2023-037AE,2026-06-29T12:13:55.094880,14.98327962,.0003192,70.0000,2.3623,267.2153,92.8640,0,U,55942,999,18073,.49864E-4,.502E-5,0
STARLINK-5932,2023-037AF,2026-06-29T12:25:56.038080,14.98329739,.0003057,70.0000,2.3829,268.8728,91.2081,0,U,55943,999,18073,.22027E-4,.17E-5,0
STARLINK-5926,2023-037AG,2026-06-29T12:19:55.487424,14.98330393,.00029,69.9999,2.3778,266.2927,93.7900,0,U,55944,999,18073,.17878E-4,.12E-5,0
STARLINK-5925,2023-037AH,2026-06-29T12:32:11.027040,14.98330532,.0002971,69.9999,2.4078,268.9930,91.0889,0,U,55945,999,18073,.3752E-4,.355E-5,0
STARLINK-5857,2023-037AJ,2026-06-29T12:31:56.883360,14.98330160,.0003009,69.9999,2.4066,268.0760,92.0054,0,U,55946,999,18072,.46184E-4,.458E-5,0
STARLINK-5900,2023-037AL,2026-06-29T12:49:39.395136,14.98330667,.0003001,70.0005,342.5692,268.0678,92.0138,0,U,55948,999,18122,.70634E-4,.75E-5,0
STARLINK-5899,2023-037AM,2026-06-29T13:01:40.682208,14.98331267,.000277,70.0003,342.5996,264.9583,95.1260,0,U,55949,999,18122,.15847E-4,.96E-6,0
STARLINK-5911,2023-037AN,2026-06-29T12:43:38.341632,14.98326088,.0003531,70.0005,342.5556,262.7024,97.3734,0,U,55950,999,18122,-.43139E-4,-.608E-5,0
STARLINK-5908,2023-037AP,2026-06-28T23:18:49.843008,14.98326453,.00029265,70.0005,3.6943,269.1410,90.9414,0,U,55951,999,18065,-.13751626E-4,-.257E-5,0
STARLINK-5893,2023-037AQ,2026-06-29T12:49:53.605344,14.98331089,.0003092,70.0006,342.5715,269.1037,90.9768,0,U,55952,999,18122,.7294E-5,-.6E-7,0
STARLINK-5892,2023-037AS,2026-06-29T12:07:34.870080,14.98328897,.000309,69.9998,342.4667,265.5890,94.4916,0,U,55954,999,18122,.22542E-4,.176E-5,0
STARLINK-5878,2023-037AT,2026-06-29T12:31:37.407072,14.98329914,.000295,70.0002,342.5255,266.5229,93.5593,0,U,55955,999,18122,.53393E-4,.544E-5,0
STARLINK-5883,2023-037AU,2026-06-29T11:55:33.508704,14.98330885,.0002804,70.0000,342.4380,267.7497,92.3341,0,U,55956,999,18122,-.10499E-4,-.218E-5,0
STARLINK-5884,2023-037AV,2026-06-29T12:37:38.070912,14.98329738,.0003084,70.0004,342.5403,267.6278,92.4528,0,U,55957,999,18122,.34024E-4,.313E-5,0
STARLINK-5928,2023-037AW,2026-06-29T12:25:36.732000,14.98329492,.0003105,70.0001,342.5112,268.7875,91.2928,0,U,55958,999,18122,.22672E-4,.178E-5,0
STARLINK-5929,2023-037AX,2026-06-29T12:19:36.115680,14.98328733,.0003142,69.9999,342.4960,264.4150,95.6651,0,U,55959,999,18122,.2505E-4,.206E-5,0
STARLINK-5938,2023-037AY,2026-06-29T12:37:52.232736,14.98329662,.0003104,70.0004,342.5227,267.9522,92.1282,0,U,55960,999,18122,.34299E-4,.316E-5,0
STARLINK-5933,2023-037AZ,2026-06-29T12:01:31.336896,14.98354826,.0002872,69.9999,342.4516,251.2199,108.8649,0,U,55961,999,18122,.21753E-3,.2505E-4,0
STARLINK-5906,2023-037BA,2026-06-29T12:55:38.534016,14.98344324,.0003163,70.0003,342.5792,267.8911,92.1886,0,U,55962,999,18122,.19112E-3,.2189E-4,0
STARLINK-5924,2023-037BB,2026-06-29T12:13:36.169824,14.98319942,.0003065,69.9998,342.4819,269.2367,90.8440,0,U,55963,999,18122,.72717E-4,.775E-5,0
STARLINK-5895,2023-037BC,2026-06-29T13:10:50.759040,15.10914572,.0002978,69.9967,333.7597,184.9865,175.1272,0,U,55964,999,18144,.1084E-2,.18041E-3,0
STARLINK-5894,2023-037BD,2026-06-29T13:25:40.753344,14.98331856,.0003231,69.9997,342.2542,270.9961,89.0828,0,U,55965,999,18123,.69338E-4,.734E-5,0
STARLINK-5905,2023-042A,2026-06-28T23:02:58.530624,15.27561828,.0001642,43.0014,151.4715,284.3695,75.6974,0,U,55986,999,18070,-.1395814E-3,-.4099E-4,0
STARLINK-5915,2023-042B,2026-06-28T22:33:23.065056,15.27563729,.00013112,43.0026,151.3339,270.0773,89.9928,0,U,55987,999,17988,.6891821E-4,.1634E-4,0
STARLINK-5916,2023-042C,2026-06-29T09:11:36.195648,15.27576126,.0001524,43.0042,152.9161,275.4654,84.6024,0,U,55988,999,17990,.78334E-4,.1894E-4,0
